COSMOS 2251 DEB         
1 34570U 93036VG  17345.00748991  .00000137  00000-0  10176-3 0  9997
2 34570  73.9622 232.6080 0199093   7.3609  51.1755 13.94900554447938
